[{"OBJECT_NAME":"OBJECT H","OBJECT_ID":"2023-091H","EPOCH":"2026-03-09T22:34:46.487712","MEAN_MOTION":15.26380881,"ECCENTRICITY":0.00117854,"INCLINATION":97.5166,"RA_OF_ASC_NODE":131.4381,"ARG_OF_PERICENTER":104.1062,"MEAN_ANOMALY":256.1487,"EPHEMERIS_TYPE":0,"CLASSIFICATION_TYPE":"U","NORAD_CAT_ID":57173,"ELEMENT_SET_NO":999,"REV_AT_EPOCH":14915,"BSTAR":0.00056321781,"MEAN_MOTION_DOT":0.00014617,"MEAN_MOTION_DDOT":0},{"OBJECT_NAME":"STARLINK-35993","OBJECT_ID":"2025-270V","EPOCH":"2026-03-09T00:42:29.978496","MEAN_MOTION":15.27598649,"ECCENTRICITY":0.00013521,"INCLINATION":43.0031,"RA_OF_ASC_NODE":60.0125,"ARG_OF_PERICENTER":241.7516,"MEAN_ANOMALY":118.3199,"EPHEMERIS_TYPE":0,"CLASSIFICATION_TYPE":"U","NORAD_CAT_ID":66607,"ELEMENT_SET_NO":999,"REV_AT_EPOCH":1750,"BSTAR":0.0010469499,"MEAN_MOTION_DOT":0.00028676,"MEAN_MOTION_DDOT":0}]
